O3B MPOWER F1           
1 54755U 22174A   24004.84714726 -.00000010  00000+0  00000+0 0  9991
2 54755   0.0575  14.1379 0006099 283.0739  90.3798  5.00118442 20616
